[{"OBJECT_NAME":"STARLINK-6251","OBJECT_ID":"2023-088AR","EPOCH":"2026-03-09T22:00:01.999584","MEAN_MOTION":15.09464879,"ECCENTRICITY":0.00017173,"INCLINATION":42.9997,"RA_OF_ASC_NODE":93.0088,"ARG_OF_PERICENTER":295.5907,"MEAN_ANOMALY":164.0192,"EPHEMERIS_TYPE":0,"CLASSIFICATION_TYPE":"U","NORAD_CAT_ID":57087,"ELEMENT_SET_NO":999,"REV_AT_EPOCH":578,"BSTAR":0.0033899147,"MEAN_MOTION_DOT":0.00055431,"MEAN_MOTION_DDOT":0},{"OBJECT_NAME":"NOAA 16 DEB","OBJECT_ID":"2000-055JP","EPOCH":"2026-03-07T06:03:41.025888","MEAN_MOTION":15.14327742,"ECCENTRICITY":0.002834,"INCLINATION":98.88,"RA_OF_ASC_NODE":0.7915,"ARG_OF_PERICENTER":107.2535,"MEAN_ANOMALY":253.1797,"EPHEMERIS_TYPE":0,"CLASSIFICATION_TYPE":"U","NORAD_CAT_ID":41370,"ELEMENT_SET_NO":999,"REV_AT_EPOCH":54059,"BSTAR":0.01119,"MEAN_MOTION_DOT":0.00212823,"MEAN_MOTION_DDOT":0}]
